STARLINK-2418           
1 48097U 21027F   26080.58334491  .01690651  00000+0  63430-1 0  9997
2 48097  53.1305  97.6216 0000943  93.3499 126.0686 15.23847785  5780
STARLINK-2421           
1 48098U 21027G   26080.44813359  .00010085  00000+0  35200-3 0  9990
2 48098  53.1598 100.3273 0001283  80.5957 279.5189 15.30215614274457
STARLINK-2428           
1 48099U 21027H   26080.52454598  .00004887  00000+0  17693-3 0  9995
2 48099  53.1612 112.8181 0001656  80.7431 279.3758 15.30215022274288
STARLINK-2430           
1 48100U 21027J   26080.58334491  .01003292  00000+0  32726-1 0  9995
2 48100  53.1507  97.2328 0002086  80.0479  33.2520 15.28615782  5837
STARLINK-2436           
1 48101U 21027K   26079.79288468  .00001279  00000+0  55304-4 0  9991
2 48101  53.1605 103.3722 0001358  93.7527 266.3629 15.30197452274367
STARLINK-2439           
1 48104U 21027N   26080.46339744  .00005728  00000+0  20526-3 0  9994
2 48104  53.1582  98.0767 0001247  91.4371 268.6772 15.30214919274498
STARLINK-2440           
1 48105U 21027P   26080.17160520  .00005078  00000+0  18802-3 0  9999
2 48105  53.1589  47.6539 0001408  94.7081 265.4080 15.29386195275162
STARLINK-2442           
1 48106U 21027Q   26080.58334491  .00035980  00000+0  12513-2 0  9992
2 48106  53.1548  96.9265 0001261  78.7228 189.5288 15.29405385  5725
STARLINK-2443           
1 48107U 21027R   26080.58334491  .01817669  00000+0  58871-1 0  9992
2 48107  53.1519  97.3280 0001126  57.9837 262.6699 15.28529858  5732
STARLINK-2448           
1 48111U 21027V   26080.42871358  .00045183  00000+0  14425-2 0  9999
2 48111  53.1593 100.3016 0002316  73.6660 286.4596 15.32063716274461
STARLINK-2449           
1 48112U 21027W   26080.46239551  .00005121  00000+0  18485-3 0  9996
2 48112  53.1604 113.1276 0001823  77.9545 282.1660 15.30211056274281
STARLINK-2450           
1 48113U 21027X   26080.40175533  .00003757  00000+0  13889-3 0  9996
2 48113  53.1605 110.8862 0001584  76.6040 283.5137 15.30208316274298
STARLINK-2452           
1 48115U 21027Z   26080.48604882  .00002589  00000+0  99464-4 0  9996
2 48115  53.1613 100.1448 0001224  99.2030 260.9109 15.30210274274454
STARLINK-2454           
1 48116U 21027AA  26080.46074423  .00006401  00000+0  22805-3 0  9998
2 48116  53.1605 110.5886 0001668  63.5975 296.5197 15.30201215274313
STARLINK-2455           
1 48117U 21027AB  26080.58334491  .00052470  00000+0  18198-2 0  9992
2 48117  53.1546  97.1747 0001883  75.8791  48.8483 15.29319793  5738
STARLINK-2459           
1 48119U 21027AD  26080.58334491  .01028304  00000+0  32662-1 0  9995
2 48119  53.1560  97.2022 0001516  69.5356   0.3457 15.29415701  5733
STARLINK-2460           
1 48120U 21027AE  26080.37402657  .00007628  00000+0  26973-3 0  9999
2 48120  53.1589 113.5380 0001535  68.2865 291.8300 15.30159687274278
STARLINK-2462           
1 48121U 21027AF  26080.45023632  .00014199  00000+0  49020-3 0  9990
2 48121  53.1596 100.3032 0001180  83.7185 276.3950 15.30226513274450
STARLINK-2464           
1 48123U 21027AH  26080.58334491  .00084843  00000+0  29260-2 0  9990
2 48123  53.1546  97.2775 0001164  79.6759  29.0392 15.29278266  5789
STARLINK-2465           
1 48124U 21027AJ  26080.19846560  .00001546  00000+0  64302-4 0  9990
2 48124  53.1614 101.4949 0001236  83.7163 276.3978 15.30201924274416
STARLINK-2466           
1 48125U 21027AK  26080.35225753  .00006039  00000+0  21584-3 0  9990
2 48125  53.1591 111.1187 0001235  83.5181 276.5961 15.30200701274292
STARLINK-2467           
1 48126U 21027AL  26080.58334491  .00013414  00000+0  47631-3 0  9992
2 48126  53.1559  97.1700 0001398  66.9690 280.9005 15.29357072  5732
STARLINK-2468           
1 48127U 21027AM  26080.46392817  .00007293  00000+0  25800-3 0  9998
2 48127  53.1616 110.7143 0001548  74.3170 285.8001 15.30213698274312
STARLINK-2469           
1 48128U 21027AN  26080.22755569  .00037391  00000+0  17332-2 0  9992
2 48128  53.1036  48.2179 0002100 129.2179 230.9003 15.19743610275152
STARLINK-2471           
1 48129U 21027AP  26080.47342966  .00002292  00000+0  89458-4 0  9995
2 48129  53.1601 110.8349 0001258  96.5601 263.5543 15.30215364274316
STARLINK-2472           
1 48130U 21027AQ  26080.48351942  .00004964  00000+0  17953-3 0  9990
2 48130  53.1601 113.4117 0001357  81.0813 279.0342 15.30216086274281
STARLINK-2473           
1 48131U 21027AR  26080.58334491  .00072805  00000+0  25161-2 0  9990
2 48131  53.1538  97.2493 0001887  65.9446 278.4810 15.29285972  5731
STARLINK-2474           
1 48132U 21027AS  26080.35810140  .00004389  00000+0  16017-3 0  9999
2 48132  53.1599 113.5939 0001264  93.1264 266.9881 15.30210415274253
STARLINK-2475           
1 48133U 21027AT  26080.36912418  .00007401  00000+0  26176-3 0  9997
2 48133  53.1594 111.0803 0001219  82.5298 277.5841 15.30198773274303
