OBJECT_NAME,OBJECT_ID,EPOCH,MEAN_MOTION,ECCENTRICITY,INCLINATION,RA_OF_ASC_NODE,ARG_OF_PERICENTER,MEAN_ANOMALY,EPHEMERIS_TYPE,CLASSIFICATION_TYPE,NORAD_CAT_ID,ELEMENT_SET_NO,REV_AT_EPOCH,BSTAR,MEAN_MOTION_DOT,MEAN_MOTION_DDOT,OBJECT_TYPE
STARLINK-2418,2021-027F,2026-03-21T14:00:01.000224,15.23847785,.0000943,53.1305,97.6216,93.3499,126.0686,0,U,48097,999,578,.63429902E-1,.1690651E-1,0,Active
STARLINK-2421,2021-027G,2026-03-21T10:45:18.742176,15.30215614,.00012839,53.1598,100.3273,80.5957,279.5189,0,U,48098,999,27445,.35200168E-3,.10085E-3,0,Active
STARLINK-2428,2021-027H,2026-03-21T12:35:20.772672,15.30215022,.00016565,53.1612,112.8181,80.7431,279.3758,0,U,48099,999,27428,.17692547E-3,.4887E-4,0,Active
STARLINK-2430,2021-027J,2026-03-21T14:00:01.000224,15.28615782,.00020868,53.1507,97.2328,80.0479,33.2520,0,U,48100,999,583,.32725861E-1,.1003292E-1,0,Active
STARLINK-2436,2021-027K,2026-03-20T19:01:45.236352,15.30197452,.00013583,53.1605,103.3722,93.7527,266.3629,0,U,48101,999,27436,.55304478E-4,.1279E-4,0,Active
STARLINK-2439,2021-027N,2026-03-21T11:07:17.538816,15.30214919,.00012471,53.1582,98.0767,91.4371,268.6772,0,U,48104,999,27449,.20526386E-3,.5728E-4,0,Active
STARLINK-2440,2021-027P,2026-03-21T04:07:06.689280,15.29386195,.00014085,53.1589,47.6539,94.7081,265.4080,0,U,48105,999,27516,.18802052E-3,.5078E-4,0,Active
STARLINK-2442,2021-027Q,2026-03-21T14:00:01.000224,15.29405385,.00012615,53.1548,96.9265,78.7228,189.5288,0,U,48106,999,572,.12512554E-2,.3598E-3,0,Active
STARLINK-2443,2021-027R,2026-03-21T14:00:01.000224,15.28529858,.00011263,53.1519,97.3280,57.9837,262.6699,0,U,48107,999,573,.58871352E-1,.1817669E-1,0,Active
STARLINK-2448,2021-027V,2026-03-21T10:17:20.853312,15.32063716,.00023163,53.1593,100.3016,73.6660,286.4596,0,U,48111,999,27446,.1442458E-2,.45183E-3,0,Active
STARLINK-2449,2021-027W,2026-03-21T11:05:50.972064,15.30211056,.00018238,53.1604,113.1276,77.9545,282.1660,0,U,48112,999,27428,.18485463E-3,.5121E-4,0,Active
STARLINK-2450,2021-027X,2026-03-21T09:38:31.660512,15.30208316,.0001584,53.1605,110.8862,76.6040,283.5137,0,U,48113,999,27429,.13889467E-3,.3757E-4,0,Active
STARLINK-2452,2021-027Z,2026-03-21T11:39:54.618048,15.30210274,.00012245,53.1613,100.1448,99.2030,260.9109,0,U,48115,999,27445,.9946426E-4,.2589E-4,0,Active
STARLINK-2454,2021-027AA,2026-03-21T11:03:28.301472,15.30201215,.00016685,53.1605,110.5886,63.5975,296.5197,0,U,48116,999,27431,.22805032E-3,.6401E-4,0,Active
STARLINK-2455,2021-027AB,2026-03-21T14:00:01.000224,15.29319793,.00018832,53.1546,97.1747,75.8791,48.8483,0,U,48117,999,573,.18198062E-2,.5247E-3,0,Active
STARLINK-2459,2021-027AD,2026-03-21T14:00:01.000224,15.29415701,.00015164,53.1560,97.2022,69.5356,0.3457,0,U,48119,999,573,.32661632E-1,.1028304E-1,0,Active
STARLINK-2460,2021-027AE,2026-03-21T08:58:35.895648,15.30159687,.00015359,53.1589,113.5380,68.2865,291.8300,0,U,48120,999,27427,.26973014E-3,.7628E-4,0,Active
STARLINK-2462,2021-027AF,2026-03-21T10:48:20.418048,15.30226513,.00011805,53.1596,100.3032,83.7185,276.3950,0,U,48121,999,27445,.49020489E-3,.14199E-3,0,Active
STARLINK-2464,2021-027AH,2026-03-21T14:00:01.000224,15.29278266,.0001164,53.1546,97.2775,79.6759,29.0392,0,U,48123,999,578,.29260142E-2,.84843E-3,0,Active
STARLINK-2465,2021-027AJ,2026-03-21T04:45:47.427840,15.30201924,.00012362,53.1614,101.4949,83.7163,276.3978,0,U,48124,999,27441,.64301626E-4,.1546E-4,0,Active
STARLINK-2466,2021-027AK,2026-03-21T08:27:15.050592,15.30200701,.00012354,53.1591,111.1187,83.5181,276.5961,0,U,48125,999,27429,.21583593E-3,.6039E-4,0,Active
STARLINK-2467,2021-027AL,2026-03-21T14:00:01.000224,15.29357072,.00013981,53.1559,97.1700,66.9690,280.9005,0,U,48126,999,573,.47630882E-3,.13414E-3,0,Active
STARLINK-2468,2021-027AM,2026-03-21T11:08:03.393888,15.30213698,.00015487,53.1616,110.7143,74.3170,285.8001,0,U,48127,999,27431,.2579979E-3,.7293E-4,0,Active
STARLINK-2469,2021-027AN,2026-03-21T05:27:40.811616,15.19743610,.00021002,53.1036,48.2179,129.2179,230.9003,0,U,48128,999,27515,.17332283E-2,.37391E-3,0,Active
STARLINK-2471,2021-027AP,2026-03-21T11:21:44.322624,15.30215364,.00012582,53.1601,110.8349,96.5601,263.5543,0,U,48129,999,27431,.89458435E-4,.2292E-4,0,Active
STARLINK-2472,2021-027AQ,2026-03-21T11:36:16.077888,15.30216086,.00013575,53.1601,113.4117,81.0813,279.0342,0,U,48130,999,27428,.17953102E-3,.4964E-4,0,Active
STARLINK-2473,2021-027AR,2026-03-21T14:00:01.000224,15.29285972,.00018874,53.1538,97.2493,65.9446,278.4810,0,U,48131,999,573,.2516058E-2,.72805E-3,0,Active
STARLINK-2474,2021-027AS,2026-03-21T08:35:39.960960,15.30210415,.00012644,53.1599,113.5939,93.1264,266.9881,0,U,48132,999,27425,.16016947E-3,.4389E-4,0,Active
STARLINK-2475,2021-027AT,2026-03-21T08:51:32.329152,15.30198773,.00012196,53.1594,111.0803,82.5298,277.5841,0,U,48133,999,27430,.2617649E-3,.7401E-4,0,Active
